CCSDS_OMM_VERS = 2.0
CREATION_DATE  = 
ORIGINATOR     = 

OBJECT_NAME    = STARLINK-36937
OBJECT_ID      = 2026-044N
CENTER_NAME    = EARTH
REF_FRAME      = TEME
TIME_SYSTEM    = UTC
MEAN_ELEMENT_THEORY = SGP/SGP4

EPOCH          = 2026-04-05T06:00:02.000160
MEAN_MOTION    = 15.46820506
ECCENTRICITY   = .00017681
INCLINATION    = 97.2856
RA_OF_ASC_NODE = 56.5675
ARG_OF_PERICENTER = 112.0132
MEAN_ANOMALY   = 204.9782

EPHEMERIS_TYPE = 0
CLASSIFICATION_TYPE = U
NORAD_CAT_ID   = 68113
ELEMENT_SET_NO = 999
REV_AT_EPOCH   = 562
BSTAR          = -.40156648E-1
MEAN_MOTION_DOT = -.1786263E-1
MEAN_MOTION_DDOT = 0

CCSDS_OMM_VERS = 2.0
CREATION_DATE  = 
ORIGINATOR     = 

OBJECT_NAME    = STARLINK-36229
OBJECT_ID      = 2026-044P
CENTER_NAME    = EARTH
REF_FRAME      = TEME
TIME_SYSTEM    = UTC
MEAN_ELEMENT_THEORY = SGP/SGP4

EPOCH          = 2026-04-05T06:00:02.000160
MEAN_MOTION    = 15.46195936
ECCENTRICITY   = .00015927
INCLINATION    = 97.2855
RA_OF_ASC_NODE = 56.5627
ARG_OF_PERICENTER = 101.8066
MEAN_ANOMALY   = 207.5767

EPHEMERIS_TYPE = 0
CLASSIFICATION_TYPE = U
NORAD_CAT_ID   = 68114
ELEMENT_SET_NO = 999
REV_AT_EPOCH   = 567
BSTAR          = -.41044229E-1
MEAN_MOTION_DOT = -.178653E-1
MEAN_MOTION_DDOT = 0

CCSDS_OMM_VERS = 2.0
CREATION_DATE  = 
ORIGINATOR     = 

OBJECT_NAME    = STARLINK-36392
OBJECT_ID      = 2026-044Q
CENTER_NAME    = EARTH
REF_FRAME      = TEME
TIME_SYSTEM    = UTC
MEAN_ELEMENT_THEORY = SGP/SGP4

EPOCH          = 2026-04-05T06:00:02.000160
MEAN_MOTION    = 15.48569996
ECCENTRICITY   = .00019883
INCLINATION    = 97.2856
RA_OF_ASC_NODE = 56.5406
ARG_OF_PERICENTER = 114.9457
MEAN_ANOMALY   = 149.5662

EPHEMERIS_TYPE = 0
CLASSIFICATION_TYPE = U
NORAD_CAT_ID   = 68115
ELEMENT_SET_NO = 999
REV_AT_EPOCH   = 567
BSTAR          = -.39860089E-1
MEAN_MOTION_DOT = -.1906665E-1
MEAN_MOTION_DDOT = 0

CCSDS_OMM_VERS = 2.0
CREATION_DATE  = 
ORIGINATOR     = 

OBJECT_NAME    = STARLINK-36805
OBJECT_ID      = 2026-044R
CENTER_NAME    = EARTH
REF_FRAME      = TEME
TIME_SYSTEM    = UTC
MEAN_ELEMENT_THEORY = SGP/SGP4

EPOCH          = 2026-04-05T06:00:02.000160
MEAN_MOTION    = 15.49198337
ECCENTRICITY   = .00016626
INCLINATION    = 97.2851
RA_OF_ASC_NODE = 56.5544
ARG_OF_PERICENTER = 117.6699
MEAN_ANOMALY   = 179.1498

EPHEMERIS_TYPE = 0
CLASSIFICATION_TYPE = U
NORAD_CAT_ID   = 68116
ELEMENT_SET_NO = 999
REV_AT_EPOCH   = 567
BSTAR          = -.5606447E-3
MEAN_MOTION_DOT = -.30475E-3
MEAN_MOTION_DDOT = 0

CCSDS_OMM_VERS = 2.0
CREATION_DATE  = 
ORIGINATOR     = 

OBJECT_NAME    = STARLINK-36844
OBJECT_ID      = 2026-044S
CENTER_NAME    = EARTH
REF_FRAME      = TEME
TIME_SYSTEM    = UTC
MEAN_ELEMENT_THEORY = SGP/SGP4

EPOCH          = 2026-04-05T06:00:02.000160
MEAN_MOTION    = 15.47874334
ECCENTRICITY   = .00017263
INCLINATION    = 97.2852
RA_OF_ASC_NODE = 56.5797
ARG_OF_PERICENTER = 96.2445
MEAN_ANOMALY   = 253.7834

EPHEMERIS_TYPE = 0
CLASSIFICATION_TYPE = U
NORAD_CAT_ID   = 68117
ELEMENT_SET_NO = 999
REV_AT_EPOCH   = 562
BSTAR          = -.39364544E-1
MEAN_MOTION_DOT = -.1813073E-1
MEAN_MOTION_DDOT = 0

CCSDS_OMM_VERS = 2.0
CREATION_DATE  = 
ORIGINATOR     = 

OBJECT_NAME    = STARLINK-36789
OBJECT_ID      = 2026-044T
CENTER_NAME    = EARTH
REF_FRAME      = TEME
TIME_SYSTEM    = UTC
MEAN_ELEMENT_THEORY = SGP/SGP4

EPOCH          = 2026-04-05T06:00:02.000160
MEAN_MOTION    = 15.47540987
ECCENTRICITY   = .00017813
INCLINATION    = 97.2852
RA_OF_ASC_NODE = 56.5883
ARG_OF_PERICENTER = 107.3856
MEAN_ANOMALY   = 262.7471

EPHEMERIS_TYPE = 0
CLASSIFICATION_TYPE = U
NORAD_CAT_ID   = 68118
ELEMENT_SET_NO = 999
REV_AT_EPOCH   = 562
BSTAR          = -.39364361E-1
MEAN_MOTION_DOT = -.1794457E-1
MEAN_MOTION_DDOT = 0

CCSDS_OMM_VERS = 2.0
CREATION_DATE  = 
ORIGINATOR     = 

OBJECT_NAME    = STARLINK-36850
OBJECT_ID      = 2026-044U
CENTER_NAME    = EARTH
REF_FRAME      = TEME
TIME_SYSTEM    = UTC
MEAN_ELEMENT_THEORY = SGP/SGP4

EPOCH          = 2026-04-05T06:00:02.000160
MEAN_MOTION    = 15.48499147
ECCENTRICITY   = .00017385
INCLINATION    = 97.2853
RA_OF_ASC_NODE = 56.5899
ARG_OF_PERICENTER = 102.9207
MEAN_ANOMALY   = 270.4021

EPHEMERIS_TYPE = 0
CLASSIFICATION_TYPE = U
NORAD_CAT_ID   = 68119
ELEMENT_SET_NO = 999
REV_AT_EPOCH   = 562
BSTAR          = -.38390219E-1
MEAN_MOTION_DOT = -.1808012E-1
MEAN_MOTION_DDOT = 0

CCSDS_OMM_VERS = 2.0
CREATION_DATE  = 
ORIGINATOR     = 

OBJECT_NAME    = STARLINK-36868
OBJECT_ID      = 2026-044V
CENTER_NAME    = EARTH
REF_FRAME      = TEME
TIME_SYSTEM    = UTC
MEAN_ELEMENT_THEORY = SGP/SGP4

EPOCH          = 2026-04-05T06:00:02.000160
MEAN_MOTION    = 15.48101947
ECCENTRICITY   = .00017243
INCLINATION    = 97.2853
RA_OF_ASC_NODE = 56.5986
ARG_OF_PERICENTER = 106.1056
MEAN_ANOMALY   = 287.1080

EPHEMERIS_TYPE = 0
CLASSIFICATION_TYPE = U
NORAD_CAT_ID   = 68120
ELEMENT_SET_NO = 999
REV_AT_EPOCH   = 562
BSTAR          = -.38611167E-1
MEAN_MOTION_DOT = -.1794896E-1
MEAN_MOTION_DDOT = 0

CCSDS_OMM_VERS = 2.0
CREATION_DATE  = 
ORIGINATOR     = 

OBJECT_NAME    = STARLINK-36855
OBJECT_ID      = 2026-044W
CENTER_NAME    = EARTH
REF_FRAME      = TEME
TIME_SYSTEM    = UTC
MEAN_ELEMENT_THEORY = SGP/SGP4

EPOCH          = 2026-04-05T06:00:02.000160
MEAN_MOTION    = 15.49172449
ECCENTRICITY   = .00016965
INCLINATION    = 97.2851
RA_OF_ASC_NODE = 56.5867
ARG_OF_PERICENTER = 110.7494
MEAN_ANOMALY   = 254.8326

EPHEMERIS_TYPE = 0
CLASSIFICATION_TYPE = U
NORAD_CAT_ID   = 68121
ELEMENT_SET_NO = 999
REV_AT_EPOCH   = 562
BSTAR          = .85194703E-3
MEAN_MOTION_DOT = .46492E-3
MEAN_MOTION_DDOT = 0

CCSDS_OMM_VERS = 2.0
CREATION_DATE  = 
ORIGINATOR     = 

OBJECT_NAME    = STARLINK-36366
OBJECT_ID      = 2026-044X
CENTER_NAME    = EARTH
REF_FRAME      = TEME
TIME_SYSTEM    = UTC
MEAN_ELEMENT_THEORY = SGP/SGP4

EPOCH          = 2026-04-05T06:00:02.000160
MEAN_MOTION    = 15.49148343
ECCENTRICITY   = .00017684
INCLINATION    = 97.2853
RA_OF_ASC_NODE = 56.5881
ARG_OF_PERICENTER = 110.2602
MEAN_ANOMALY   = 264.1183

EPHEMERIS_TYPE = 0
CLASSIFICATION_TYPE = U
NORAD_CAT_ID   = 68122
ELEMENT_SET_NO = 999
REV_AT_EPOCH   = 567
BSTAR          = .17413765E-2
MEAN_MOTION_DOT = .95642E-3
MEAN_MOTION_DDOT = 0

CCSDS_OMM_VERS = 2.0
CREATION_DATE  = 
ORIGINATOR     = 

OBJECT_NAME    = STARLINK-36922
OBJECT_ID      = 2026-044Y
CENTER_NAME    = EARTH
REF_FRAME      = TEME
TIME_SYSTEM    = UTC
MEAN_ELEMENT_THEORY = SGP/SGP4

EPOCH          = 2026-04-05T06:00:02.000160
MEAN_MOTION    = 15.49141660
ECCENTRICITY   = .00016189
INCLINATION    = 97.2855
RA_OF_ASC_NODE = 56.5993
ARG_OF_PERICENTER = 84.6715
MEAN_ANOMALY   = 314.9212

EPHEMERIS_TYPE = 0
CLASSIFICATION_TYPE = U
NORAD_CAT_ID   = 68123
ELEMENT_SET_NO = 999
REV_AT_EPOCH   = 567
BSTAR          = .2106404E-2
MEAN_MOTION_DOT = .115982E-2
MEAN_MOTION_DDOT = 0

CCSDS_OMM_VERS = 2.0
CREATION_DATE  = 
ORIGINATOR     = 

OBJECT_NAME    = STARLINK-36938
OBJECT_ID      = 2026-044Z
CENTER_NAME    = EARTH
REF_FRAME      = TEME
TIME_SYSTEM    = UTC
MEAN_ELEMENT_THEORY = SGP/SGP4

EPOCH          = 2026-04-05T03:56:54.680064
MEAN_MOTION    = 15.75246825
ECCENTRICITY   = .00015917
INCLINATION    = 97.2875
RA_OF_ASC_NODE = 56.7012
ARG_OF_PERICENTER = 93.6133
MEAN_ANOMALY   = 266.5314

EPHEMERIS_TYPE = 0
CLASSIFICATION_TYPE = U
NORAD_CAT_ID   = 68124
ELEMENT_SET_NO = 999
REV_AT_EPOCH   = 565
BSTAR          = .19490123E-2
MEAN_MOTION_DOT = .301833E-2
MEAN_MOTION_DDOT = 0

