STARLINK-36937          
1 68113U 26044N   26095.25002315 -.01786263  00000+0 -40157-1 0  9997
2 68113  97.2856  56.5675 0001768 112.0132 204.9782 15.46820506  5626
STARLINK-36229          
1 68114U 26044P   26095.25002315 -.01786530  00000+0 -41044-1 0  9991
2 68114  97.2855  56.5627 0001592 101.8066 207.5767 15.46195936  5679
STARLINK-36392          
1 68115U 26044Q   26095.25002315 -.01906665  00000+0 -39860-1 0  9998
2 68115  97.2856  56.5406 0001988 114.9457 149.5662 15.48569996  5676
STARLINK-36805          
1 68116U 26044R   26095.25002315 -.00030475  00000+0 -56064-3 0  9992
2 68116  97.2851  56.5544 0001662 117.6699 179.1498 15.49198337  5676
STARLINK-36844          
1 68117U 26044S   26095.25002315 -.01813073  00000+0 -39365-1 0  9990
2 68117  97.2852  56.5797 0001726  96.2445 253.7834 15.47874334  5624
STARLINK-36789          
1 68118U 26044T   26095.25002315 -.01794457  00000+0 -39364-1 0  9994
2 68118  97.2852  56.5883 0001781 107.3856 262.7471 15.47540987  5623
STARLINK-36850          
1 68119U 26044U   26095.25002315 -.01808012  00000+0 -38390-1 0  9996
2 68119  97.2853  56.5899 0001738 102.9207 270.4021 15.48499147  5624
STARLINK-36868          
1 68120U 26044V   26095.25002315 -.01794896  00000+0 -38611-1 0  9998
2 68120  97.2853  56.5986 0001724 106.1056 287.1080 15.48101947  5624
STARLINK-36855          
1 68121U 26044W   26095.25002315  .00046492  00000+0  85195-3 0  9999
2 68121  97.2851  56.5867 0001696 110.7494 254.8326 15.49172449  5626
STARLINK-36366          
1 68122U 26044X   26095.25002315  .00095642  00000+0  17414-2 0  9999
2 68122  97.2853  56.5881 0001768 110.2602 264.1183 15.49148343  5677
STARLINK-36922          
1 68123U 26044Y   26095.25002315  .00115982  00000+0  21064-2 0  9996
2 68123  97.2855  56.5993 0001618  84.6715 314.9212 15.49141660  5679
STARLINK-36938          
1 68124U 26044Z   26095.16452176  .00301833  00000+0  19490-2 0  9993
2 68124  97.2875  56.7012 0001591  93.6133 266.5314 15.75246825  5651
